SL-3 R/B                
1 19046U 88032B   26070.51009749  .00006295  00000+0  29379-3 0  9995
2 19046  97.5195  53.7548 0024543 224.7801 135.1453 15.19934143 52382
SL-16 R/B               
1 19120U 88039B   26070.38956014  .00000046  00000+0  44683-4 0  9990
2 19120  71.0136  64.9528 0022884 331.9159  28.0730 14.19615620958627
COSMOS 1953             
1 19210U 88050A   26070.52408340  .00009121  00000+0  32636-3 0  9990
2 19210  82.5104 156.4026 0012554 116.8006 243.4519 15.28562083 38063
SL-8 R/B                
1 19257U 88053B   26070.47287155  .00000277  00000+0  98209-4 0  9999
2 19257  74.0458 109.1793 0021450 288.2025 178.1097 14.38916904976856
COSMOS 1975             
1 19573U 88093A   26070.49287056  .00007213  00000+0  26157-3 0  9995
2 19573  82.5183 115.8751 0012324 157.3345 202.8441 15.28098561 19682
SL-14 R/B               
1 19574U 88093B   26070.42384718  .00000728  00000+0  80922-4 0  9997
2 19574  82.5308  40.4156 0021640  36.0133  80.9446 14.85658999  1278
SL-16 R/B               
1 19650U 88102B   26070.45889779  .00000297  00000+0  17405-3 0  9999
2 19650  71.0000 147.7753 0014086 358.8557   1.2531 14.16153230927146
INTERCOSMOS 24          
1 20261U 89080A   26070.47056041  .00000837  00000+0  24935-3 0  9991
2 20261  82.6024 103.2444 1186686 288.6828  58.9231 12.59560907667024
SL-14 R/B               
1 20262U 89080C   26070.55632779  .00000661  00000+0  19416-3 0  9992
2 20262  82.5975 171.9884 1230631 180.4842 179.5168 12.50496344660389
DELTA 1 R/B             
1 20323U 89089B   26070.48318828  .00000397  00000+0  10651-3 0  9995
2 20323  97.0705 277.6367 0070546 116.4099 244.4362 14.50664586895990
ARIANE 40 R/B           
1 20443U 90005H   26070.41182572  .00000304  00000+0  11026-3 0  9991
2 20443  98.3079 131.0219 0009957 193.3091 166.7836 14.39871707893053
DELTA 2 R/B(1)          
1 20453U 90008B   26070.36347181  .00065431  00000+0  75915-3 0  9997
2 20453  35.6035 163.8667 0084896 274.1701  84.9336 15.56223885926399
