CCSDS_OMM_VERS = 2.0
CREATION_DATE  = 
ORIGINATOR     = 

OBJECT_NAME    = SL-3 R/B
OBJECT_ID      = 1988-032B
CENTER_NAME    = EARTH
REF_FRAME      = TEME
TIME_SYSTEM    = UTC
MEAN_ELEMENT_THEORY = SGP/SGP4

EPOCH          = 2026-03-11T12:14:32.423136
MEAN_MOTION    = 15.19934143
ECCENTRICITY   = .0024543
INCLINATION    = 97.5195
RA_OF_ASC_NODE = 53.7548
ARG_OF_PERICENTER = 224.7801
MEAN_ANOMALY   = 135.1453

EPHEMERIS_TYPE = 0
CLASSIFICATION_TYPE = U
NORAD_CAT_ID   = 19046
ELEMENT_SET_NO = 999
REV_AT_EPOCH   = 5238
BSTAR          = .29379E-3
MEAN_MOTION_DOT = .6295E-4
MEAN_MOTION_DDOT = 0

CCSDS_OMM_VERS = 2.0
CREATION_DATE  = 
ORIGINATOR     = 

OBJECT_NAME    = SL-16 R/B
OBJECT_ID      = 1988-039B
CENTER_NAME    = EARTH
REF_FRAME      = TEME
TIME_SYSTEM    = UTC
MEAN_ELEMENT_THEORY = SGP/SGP4

EPOCH          = 2026-03-11T09:20:57.996096
MEAN_MOTION    = 14.19615620
ECCENTRICITY   = .0022884
INCLINATION    = 71.0136
RA_OF_ASC_NODE = 64.9528
ARG_OF_PERICENTER = 331.9159
MEAN_ANOMALY   = 28.0730

EPHEMERIS_TYPE = 0
CLASSIFICATION_TYPE = U
NORAD_CAT_ID   = 19120
ELEMENT_SET_NO = 999
REV_AT_EPOCH   = 95862
BSTAR          = .44683E-4
MEAN_MOTION_DOT = .46E-6
MEAN_MOTION_DDOT = 0

CCSDS_OMM_VERS = 2.0
CREATION_DATE  = 
ORIGINATOR     = 

OBJECT_NAME    = COSMOS 1953
OBJECT_ID      = 1988-050A
CENTER_NAME    = EARTH
REF_FRAME      = TEME
TIME_SYSTEM    = UTC
MEAN_ELEMENT_THEORY = SGP/SGP4

EPOCH          = 2026-03-11T12:34:40.805760
MEAN_MOTION    = 15.28562083
ECCENTRICITY   = .0012554
INCLINATION    = 82.5104
RA_OF_ASC_NODE = 156.4026
ARG_OF_PERICENTER = 116.8006
MEAN_ANOMALY   = 243.4519

EPHEMERIS_TYPE = 0
CLASSIFICATION_TYPE = U
NORAD_CAT_ID   = 19210
ELEMENT_SET_NO = 999
REV_AT_EPOCH   = 3806
BSTAR          = .32636E-3
MEAN_MOTION_DOT = .9121E-4
MEAN_MOTION_DDOT = 0

CCSDS_OMM_VERS = 2.0
CREATION_DATE  = 
ORIGINATOR     = 

OBJECT_NAME    = SL-8 R/B
OBJECT_ID      = 1988-053B
CENTER_NAME    = EARTH
REF_FRAME      = TEME
TIME_SYSTEM    = UTC
MEAN_ELEMENT_THEORY = SGP/SGP4

EPOCH          = 2026-03-11T11:20:56.101920
MEAN_MOTION    = 14.38916904
ECCENTRICITY   = .002145
INCLINATION    = 74.0458
RA_OF_ASC_NODE = 109.1793
ARG_OF_PERICENTER = 288.2025
MEAN_ANOMALY   = 178.1097

EPHEMERIS_TYPE = 0
CLASSIFICATION_TYPE = U
NORAD_CAT_ID   = 19257
ELEMENT_SET_NO = 999
REV_AT_EPOCH   = 97685
BSTAR          = .98209E-4
MEAN_MOTION_DOT = .277E-5
MEAN_MOTION_DDOT = 0

CCSDS_OMM_VERS = 2.0
CREATION_DATE  = 
ORIGINATOR     = 

OBJECT_NAME    = COSMOS 1975
OBJECT_ID      = 1988-093A
CENTER_NAME    = EARTH
REF_FRAME      = TEME
TIME_SYSTEM    = UTC
MEAN_ELEMENT_THEORY = SGP/SGP4

EPOCH          = 2026-03-11T11:49:44.016384
MEAN_MOTION    = 15.28098561
ECCENTRICITY   = .0012324
INCLINATION    = 82.5183
RA_OF_ASC_NODE = 115.8751
ARG_OF_PERICENTER = 157.3345
MEAN_ANOMALY   = 202.8441

EPHEMERIS_TYPE = 0
CLASSIFICATION_TYPE = U
NORAD_CAT_ID   = 19573
ELEMENT_SET_NO = 999
REV_AT_EPOCH   = 1968
BSTAR          = .26157E-3
MEAN_MOTION_DOT = .7213E-4
MEAN_MOTION_DDOT = 0

CCSDS_OMM_VERS = 2.0
CREATION_DATE  = 
ORIGINATOR     = 

OBJECT_NAME    = SL-14 R/B
OBJECT_ID      = 1988-093B
CENTER_NAME    = EARTH
REF_FRAME      = TEME
TIME_SYSTEM    = UTC
MEAN_ELEMENT_THEORY = SGP/SGP4

EPOCH          = 2026-03-11T10:10:20.396352
MEAN_MOTION    = 14.85658999
ECCENTRICITY   = .002164
INCLINATION    = 82.5308
RA_OF_ASC_NODE = 40.4156
ARG_OF_PERICENTER = 36.0133
MEAN_ANOMALY   = 80.9446

EPHEMERIS_TYPE = 0
CLASSIFICATION_TYPE = U
NORAD_CAT_ID   = 19574
ELEMENT_SET_NO = 999
REV_AT_EPOCH   = 127
BSTAR          = .80922E-4
MEAN_MOTION_DOT = .728E-5
MEAN_MOTION_DDOT = 0

CCSDS_OMM_VERS = 2.0
CREATION_DATE  = 
ORIGINATOR     = 

OBJECT_NAME    = SL-16 R/B
OBJECT_ID      = 1988-102B
CENTER_NAME    = EARTH
REF_FRAME      = TEME
TIME_SYSTEM    = UTC
MEAN_ELEMENT_THEORY = SGP/SGP4

EPOCH          = 2026-03-11T11:00:48.769056
MEAN_MOTION    = 14.16153230
ECCENTRICITY   = .0014086
INCLINATION    = 71.0000
RA_OF_ASC_NODE = 147.7753
ARG_OF_PERICENTER = 358.8557
MEAN_ANOMALY   = 1.2531

EPHEMERIS_TYPE = 0
CLASSIFICATION_TYPE = U
NORAD_CAT_ID   = 19650
ELEMENT_SET_NO = 999
REV_AT_EPOCH   = 92714
BSTAR          = .17405E-3
MEAN_MOTION_DOT = .297E-5
MEAN_MOTION_DDOT = 0

CCSDS_OMM_VERS = 2.0
CREATION_DATE  = 
ORIGINATOR     = 

OBJECT_NAME    = INTERCOSMOS 24
OBJECT_ID      = 1989-080A
CENTER_NAME    = EARTH
REF_FRAME      = TEME
TIME_SYSTEM    = UTC
MEAN_ELEMENT_THEORY = SGP/SGP4

EPOCH          = 2026-03-11T11:17:36.419424
MEAN_MOTION    = 12.59560907
ECCENTRICITY   = .1186686
INCLINATION    = 82.6024
RA_OF_ASC_NODE = 103.2444
ARG_OF_PERICENTER = 288.6828
MEAN_ANOMALY   = 58.9231

EPHEMERIS_TYPE = 0
CLASSIFICATION_TYPE = U
NORAD_CAT_ID   = 20261
ELEMENT_SET_NO = 999
REV_AT_EPOCH   = 66702
BSTAR          = .24935E-3
MEAN_MOTION_DOT = .837E-5
MEAN_MOTION_DDOT = 0

CCSDS_OMM_VERS = 2.0
CREATION_DATE  = 
ORIGINATOR     = 

OBJECT_NAME    = SL-14 R/B
OBJECT_ID      = 1989-080C
CENTER_NAME    = EARTH
REF_FRAME      = TEME
TIME_SYSTEM    = UTC
MEAN_ELEMENT_THEORY = SGP/SGP4

EPOCH          = 2026-03-11T13:21:06.721056
MEAN_MOTION    = 12.50496344
ECCENTRICITY   = .1230631
INCLINATION    = 82.5975
RA_OF_ASC_NODE = 171.9884
ARG_OF_PERICENTER = 180.4842
MEAN_ANOMALY   = 179.5168

EPHEMERIS_TYPE = 0
CLASSIFICATION_TYPE = U
NORAD_CAT_ID   = 20262
ELEMENT_SET_NO = 999
REV_AT_EPOCH   = 66038
BSTAR          = .19416E-3
MEAN_MOTION_DOT = .661E-5
MEAN_MOTION_DDOT = 0

CCSDS_OMM_VERS = 2.0
CREATION_DATE  = 
ORIGINATOR     = 

OBJECT_NAME    = DELTA 1 R/B
OBJECT_ID      = 1989-089B
CENTER_NAME    = EARTH
REF_FRAME      = TEME
TIME_SYSTEM    = UTC
MEAN_ELEMENT_THEORY = SGP/SGP4

EPOCH          = 2026-03-11T11:35:47.467392
MEAN_MOTION    = 14.50664586
ECCENTRICITY   = .0070546
INCLINATION    = 97.0705
RA_OF_ASC_NODE = 277.6367
ARG_OF_PERICENTER = 116.4099
MEAN_ANOMALY   = 244.4362

EPHEMERIS_TYPE = 0
CLASSIFICATION_TYPE = U
NORAD_CAT_ID   = 20323
ELEMENT_SET_NO = 999
REV_AT_EPOCH   = 89599
BSTAR          = .10651E-3
MEAN_MOTION_DOT = .397E-5
MEAN_MOTION_DDOT = 0

CCSDS_OMM_VERS = 2.0
CREATION_DATE  = 
ORIGINATOR     = 

OBJECT_NAME    = ARIANE 40 R/B
OBJECT_ID      = 1990-005H
CENTER_NAME    = EARTH
REF_FRAME      = TEME
TIME_SYSTEM    = UTC
MEAN_ELEMENT_THEORY = SGP/SGP4

EPOCH          = 2026-03-11T09:53:01.742208
MEAN_MOTION    = 14.39871707
ECCENTRICITY   = .0009957
INCLINATION    = 98.3079
RA_OF_ASC_NODE = 131.0219
ARG_OF_PERICENTER = 193.3091
MEAN_ANOMALY   = 166.7836

EPHEMERIS_TYPE = 0
CLASSIFICATION_TYPE = U
NORAD_CAT_ID   = 20443
ELEMENT_SET_NO = 999
REV_AT_EPOCH   = 89305
BSTAR          = .11026E-3
MEAN_MOTION_DOT = .304E-5
MEAN_MOTION_DDOT = 0

CCSDS_OMM_VERS = 2.0
CREATION_DATE  = 
ORIGINATOR     = 

OBJECT_NAME    = DELTA 2 R/B(1)
OBJECT_ID      = 1990-008B
CENTER_NAME    = EARTH
REF_FRAME      = TEME
TIME_SYSTEM    = UTC
MEAN_ELEMENT_THEORY = SGP/SGP4

EPOCH          = 2026-03-11T08:43:23.964384
MEAN_MOTION    = 15.56223885
ECCENTRICITY   = .0084896
INCLINATION    = 35.6035
RA_OF_ASC_NODE = 163.8667
ARG_OF_PERICENTER = 274.1701
MEAN_ANOMALY   = 84.9336

EPHEMERIS_TYPE = 0
CLASSIFICATION_TYPE = U
NORAD_CAT_ID   = 20453
ELEMENT_SET_NO = 999
REV_AT_EPOCH   = 92639
BSTAR          = .75915E-3
MEAN_MOTION_DOT = .65431E-3
MEAN_MOTION_DDOT = 0

